[{"OBJECT_NAME":"YUNHAI-2 01D","OBJECT_ID":"2018-112D","EPOCH":"2026-03-09T23:06:26.804736","MEAN_MOTION":14.28986233,"ECCENTRICITY":0.00157828,"INCLINATION":50.0122,"RA_OF_ASC_NODE":348.6213,"ARG_OF_PERICENTER":356.8631,"MEAN_ANOMALY":3.2183,"EPHEMERIS_TYPE":0,"CLASSIFICATION_TYPE":"U","NORAD_CAT_ID":43912,"ELEMENT_SET_NO":999,"REV_AT_EPOCH":37339,"BSTAR":0.00013763161,"MEAN_MOTION_DOT":1.89e-6,"MEAN_MOTION_DDOT":0},{"OBJECT_NAME":"SCOUT G-1 DEB","OBJECT_ID":"1987-080P","EPOCH":"2026-02-26T21:42:13.203936","MEAN_MOTION":14.19007469,"ECCENTRICITY":0.00644361,"INCLINATION":90.33,"RA_OF_ASC_NODE":115.4327,"ARG_OF_PERICENTER":29.589,"MEAN_ANOMALY":330.8921,"EPHEMERIS_TYPE":0,"CLASSIFICATION_TYPE":"U","NORAD_CAT_ID":29211,"ELEMENT_SET_NO":999,"REV_AT_EPOCH":8773,"BSTAR":0.0029308232,"MEAN_MOTION_DOT":6.253e-5,"MEAN_MOTION_DDOT":0}]
